start=new Date('2022-12-12T00:00:00.000Z').valueOf();
sats=[{"MEAN_ANOMALY":"160.7589","RCS_SIZE":"LARGE","ARG_OF_PERICENTER":"91.7317","REV_AT_EPOCH":"130","MEAN_MOTION_DOT":"-0.01146404","NORAD_CAT_ID":"53845","PERIOD":"94.934","COUNTRY_CODE":"US","RA_OF_ASC_NODE":"208.3996","FILE":"3691993","DECAY_DATE":null,"MEAN_ELEMENT_THEORY":"SGP4","OBJECT_TYPE":"PAYLOAD","CLASSIFICATION_TYPE":"U","SEMIMAJOR_AXIS":"6893.522","GP_ID":"220099869","LAUNCH_DATE":"2022-09-19","MEAN_MOTION_DDOT":"0.0000000000000","EPOCH":"2022-12-11T22:00:01.999584","BSTAR":"-0.06246700000000","CENTER_NAME":"EARTH","REF_FRAME":"TEME","INCLINATION":"53.2175","OBJECT_NAME":"STARLINK-4753","PERIAPSIS":"514.424","ECCENTRICITY":"0.00013970","EPHEMERIS_TYPE":"0","MEAN_MOTION":"15.16844340","APOAPSIS":"516.350","ELEMENT_SET_NO":"999","SITE":"AFETR","TLE_LINE2":"2 53845  53.2175 208.3996 0001397  91.7317 160.7589 15.16844340  1301","TLE_LINE1":"1 53845U 22114AD  22345.91668981 -.01146404  00000-0 -62467-1 0  9997","OBJECT_ID":"2022-114AD","TIME_SYSTEM":"UTC"},{"REF_FRAME":"TEME","INCLINATION":"53.2174","CENTER_NAME":"EARTH","ECCENTRICITY":"0.00013390","PERIAPSIS":"507.682","OBJECT_NAME":"STARLINK-4746","SITE":"AFETR","TLE_LINE2":"2 53846  53.2174 208.2418 0001339 112.4868 209.9757 15.19085716  1307","EPHEMERIS_TYPE":"0","MEAN_MOTION":"15.19085716","APOAPSIS":"509.527","ELEMENT_SET_NO":"999","TLE_LINE1":"1 53846U 22114AE  22345.91668981 -.01148961  00000-0 -58683-1 0  9993","OBJECT_ID":"2022-114AE","TIME_SYSTEM":"UTC","RCS_SIZE":"LARGE","REV_AT_EPOCH":"130","ARG_OF_PERICENTER":"112.4868","MEAN_ANOMALY":"209.9757","RA_OF_ASC_NODE":"208.2418","MEAN_MOTION_DOT":"-0.01148961","NORAD_CAT_ID":"53846","PERIOD":"94.794","COUNTRY_CODE":"US","OBJECT_TYPE":"PAYLOAD","CLASSIFICATION_TYPE":"U","SEMIMAJOR_AXIS":"6886.739","FILE":"3691993","DECAY_DATE":null,"MEAN_ELEMENT_THEORY":"SGP4","GP_ID":"220099620","BSTAR":"-0.05868300000000","LAUNCH_DATE":"2022-09-19","MEAN_MOTION_DDOT":"0.0000000000000","EPOCH":"2022-12-11T22:00:01.999584"},{"OBJECT_TYPE":"PAYLOAD","SEMIMAJOR_AXIS":"6889.465","CLASSIFICATION_TYPE":"U","FILE":"3691993","DECAY_DATE":null,"MEAN_ELEMENT_THEORY":"SGP4","GP_ID":"220100871","MEAN_MOTION_DDOT":"0.0000000000000","LAUNCH_DATE":"2022-09-19","BSTAR":"-0.06013800000000","EPOCH":"2022-12-11T22:00:01.999584","RCS_SIZE":"LARGE","REV_AT_EPOCH":"130","ARG_OF_PERICENTER":"89.2830","MEAN_ANOMALY":"186.1188","RA_OF_ASC_NODE":"208.3344","MEAN_MOTION_DOT":"-0.01147149","NORAD_CAT_ID":"53847","PERIOD":"94.850","COUNTRY_CODE":"US","SITE":"AFETR","TLE_LINE2":"2 53847  53.2175 208.3344 0001347  89.2830 186.1188 15.18184389  1306","EPHEMERIS_TYPE":"0","MEAN_MOTION":"15.18184389","APOAPSIS":"512.258","ELEMENT_SET_NO":"999","TLE_LINE1":"1 53847U 22114AF  22345.91668981 -.01147149  00000-0 -60138-1 0  9999","OBJECT_ID":"2022-114AF","TIME_SYSTEM":"UTC","REF_FRAME":"TEME","INCLINATION":"53.2175","CENTER_NAME":"EARTH","ECCENTRICITY":"0.00013470","PERIAPSIS":"510.402","OBJECT_NAME":"STARLINK-4777"},{"CLASSIFICATION_TYPE":"U","SEMIMAJOR_AXIS":"6884.925","OBJECT_TYPE":"PAYLOAD","MEAN_ELEMENT_THEORY":"SGP4","DECAY_DATE":null,"FILE":"3691993","BSTAR":"-0.05773400000000","LAUNCH_DATE":"2022-09-19","MEAN_MOTION_DDOT":"0.0000000000000","EPOCH":"2022-12-11T22:00:01.999584","GP_ID":"220100622","ARG_OF_PERICENTER":"81.3618","REV_AT_EPOCH":"130","RCS_SIZE":"LARGE","MEAN_ANOMALY":"271.8150","RA_OF_ASC_NODE":"208.1812","PERIOD":"94.756","COUNTRY_CODE":"US","MEAN_MOTION_DOT":"-0.01150245","NORAD_CAT_ID":"53848","SITE":"AFETR","TLE_LINE2":"2 53848  53.2174 208.1812 0001213  81.3618 271.8150 15.19686346  1305","ELEMENT_SET_NO":"999","APOAPSIS":"507.625","MEAN_MOTION":"15.19686346","EPHEMERIS_TYPE":"0","TIME_SYSTEM":"UTC","OBJECT_ID":"2022-114AG","TLE_LINE1":"1 53848U 22114AG  22345.91668981 -.01150245  00000-0 -57734-1 0  9999","INCLINATION":"53.2174","REF_FRAME":"TEME","CENTER_NAME":"EARTH","ECCENTRICITY":"0.00012130","PERIAPSIS":"505.955","OBJECT_NAME":"STARLINK-4780"},{"ECCENTRICITY":"0.00012950","PERIAPSIS":"508.622","OBJECT_NAME":"STARLINK-4770","INCLINATION":"53.2175","REF_FRAME":"TEME","CENTER_NAME":"EARTH","TLE_LINE1":"1 53849U 22114AH  22345.91668981 -.01148190  00000-0 -59157-1 0  9997","TIME_SYSTEM":"UTC","OBJECT_ID":"2022-114AH","SITE":"AFETR","TLE_LINE2":"2 53849  53.2175 208.2722 0001295  77.6673 229.2478 15.18784763  1308","EPHEMERIS_TYPE":"0","APOAPSIS":"510.406","ELEMENT_SET_NO":"999","MEAN_MOTION":"15.18784763","RA_OF_ASC_NODE":"208.2722","MEAN_MOTION_DOT":"-0.01148190","NORAD_CAT_ID":"53849","COUNTRY_CODE":"US","PERIOD":"94.813","RCS_SIZE":"LARGE","ARG_OF_PERICENTER":"77.6673","REV_AT_EPOCH":"130","MEAN_ANOMALY":"229.2478","GP_ID":"220099370","LAUNCH_DATE":"2022-09-19","BSTAR":"-0.05915700000000","MEAN_MOTION_DDOT":"0.0000000000000","EPOCH":"2022-12-11T22:00:01.999584","OBJECT_TYPE":"PAYLOAD","SEMIMAJOR_AXIS":"6887.649","CLASSIFICATION_TYPE":"U","DECAY_DATE":null,"FILE":"3691993","MEAN_ELEMENT_THEORY":"SGP4"},{"DECAY_DATE":null,"FILE":"3691993","MEAN_ELEMENT_THEORY":"SGP4","OBJECT_TYPE":"PAYLOAD","SEMIMAJOR_AXIS":"6882.205","CLASSIFICATION_TYPE":"U","GP_ID":"220100120","MEAN_MOTION_DDOT":"0.0000000000000","LAUNCH_DATE":"2022-09-19","BSTAR":"-0.05632300000000","EPOCH":"2022-12-11T22:00:01.999584","MEAN_ANOMALY":"315.4279","RCS_SIZE":"LARGE","ARG_OF_PERICENTER":"82.8199","REV_AT_EPOCH":"130","MEAN_MOTION_DOT":"-0.01152027","NORAD_CAT_ID":"53850","PERIOD":"94.700","COUNTRY_CODE":"US","RA_OF_ASC_NODE":"208.0921","EPHEMERIS_TYPE":"0","APOAPSIS":"504.902","ELEMENT_SET_NO":"999","MEAN_MOTION":"15.20587379","TLE_LINE2":"2 53850  53.2174 208.0921 0001210  82.8199 315.4279 15.20587379  1300","SITE":"AFETR","TLE_LINE1":"1 53850U 22114AJ  22345.91668981 -.01152027  00000-0 -56323-1 0  9995","TIME_SYSTEM":"UTC","OBJECT_ID":"2022-114AJ","CENTER_NAME":"EARTH","INCLINATION":"53.2174","REF_FRAME":"TEME","OBJECT_NAME":"STARLINK-4767","PERIAPSIS":"503.237","ECCENTRICITY":"0.00012100"},{"MEAN_ANOMALY":"237.4546","REV_AT_EPOCH":"130","ARG_OF_PERICENTER":"100.4288","RCS_SIZE":"LARGE","PERIOD":"94.775","COUNTRY_CODE":"US","NORAD_CAT_ID":"53851","MEAN_MOTION_DOT":"-0.01149528","RA_OF_ASC_NODE":"208.2112","MEAN_ELEMENT_THEORY":"SGP4","DECAY_DATE":null,"FILE":"3691993","SEMIMAJOR_AXIS":"6885.832","CLASSIFICATION_TYPE":"U","OBJECT_TYPE":"PAYLOAD","MEAN_MOTION_DDOT":"0.0000000000000","LAUNCH_DATE":"2022-09-19","BSTAR":"-0.05820300000000","EPOCH":"2022-12-11T22:00:01.999584","GP_ID":"220100372","CENTER_NAME":"EARTH","INCLINATION":"53.2174","REF_FRAME":"TEME","OBJECT_NAME":"STARLINK-4755","PERIAPSIS":"506.841","ECCENTRICITY":"0.00012420","ELEMENT_SET_NO":"999","APOAPSIS":"508.552","MEAN_MOTION":"15.19386159","EPHEMERIS_TYPE":"0","SITE":"AFETR","TLE_LINE2":"2 53851  53.2174 208.2112 0001242 100.4288 237.4546 15.19386159  1307","TIME_SYSTEM":"UTC","OBJECT_ID":"2022-114AK","TLE_LINE1":"1 53851U 22114AK  22345.91668981 -.01149528  00000-0 -58203-1 0  9997"},{"OBJECT_ID":"2022-114AL","TIME_SYSTEM":"UTC","TLE_LINE1":"1 53852U 22114AL  22345.91668981 -.01146025  00000-0 -27334-1 0  9998","MEAN_MOTION":"15.43731984","APOAPSIS":"435.987","ELEMENT_SET_NO":"999","EPHEMERIS_TYPE":"0","TLE_LINE2":"2 53852  53.2173 205.1606 0001289  59.5379   4.0452 15.43731984  1308","SITE":"AFETR","OBJECT_NAME":"STARLINK-4797","ECCENTRICITY":"0.00012890","PERIAPSIS":"434.230","CENTER_NAME":"EARTH","REF_FRAME":"TEME","INCLINATION":"53.2173","EPOCH":"2022-12-11T22:00:01.999584","LAUNCH_DATE":"2022-09-19","MEAN_MOTION_DDOT":"0.0000000000000","BSTAR":"-0.02733400000000","GP_ID":"220101122","MEAN_ELEMENT_THEORY":"SGP4","FILE":"3691993","DECAY_DATE":null,"CLASSIFICATION_TYPE":"U","SEMIMAJOR_AXIS":"6813.243","OBJECT_TYPE":"PAYLOAD","PERIOD":"93.280","COUNTRY_CODE":"US","NORAD_CAT_ID":"53852","MEAN_MOTION_DOT":"-0.01146025","RA_OF_ASC_NODE":"205.1606","MEAN_ANOMALY":"4.0452","REV_AT_EPOCH":"130","ARG_OF_PERICENTER":"59.5379","RCS_SIZE":"LARGE"},{"MEAN_ANOMALY":"322.4724","ARG_OF_PERICENTER":"83.1988","REV_AT_EPOCH":"130","RCS_SIZE":"LARGE","COUNTRY_CODE":"US","PERIOD":"94.563","MEAN_MOTION_DOT":"-0.01152898","NORAD_CAT_ID":"53853","RA_OF_ASC_NODE":"208.0800","MEAN_ELEMENT_THEORY":"SGP4","DECAY_DATE":null,"FILE":"3691993","CLASSIFICATION_TYPE":"U","SEMIMAJOR_AXIS":"6875.559","OBJECT_TYPE":"PAYLOAD","LAUNCH_DATE":"2022-09-19","BSTAR":"-0.05280900000000","MEAN_MOTION_DDOT":"0.0000000000000","EPOCH":"2022-12-11T22:00:01.999584","GP_ID":"220099870","CENTER_NAME":"EARTH","INCLINATION":"53.2174","REF_FRAME":"TEME","OBJECT_NAME":"STARLINK-4794","ECCENTRICITY":"0.00012080","PERIAPSIS":"496.594","APOAPSIS":"498.255","ELEMENT_SET_NO":"999","MEAN_MOTION":"15.22792393","EPHEMERIS_TYPE":"0","TLE_LINE2":"2 53853  53.2174 208.0800 0001208  83.1988 322.4724 15.22792393  1305","SITE":"AFETR","TIME_SYSTEM":"UTC","OBJECT_ID":"2022-114AM","TLE_LINE1":"1 53853U 22114AM  22345.91668981 -.01152898  00000-0 -52809-1 0  9999"},{"OBJECT_NAME":"STARLINK-4800","PERIAPSIS":"355.464","ECCENTRICITY":"0.00054910","CENTER_NAME":"EARTH","REF_FRAME":"TEME","INCLINATION":"53.2132","TLE_LINE1":"1 53854U 22114AN  22345.77929726 -.00491397  00000-0 -42542-2 0  9994","OBJECT_ID":"2022-114AN","TIME_SYSTEM":"UTC","EPHEMERIS_TYPE":"0","MEAN_MOTION":"15.69907600","ELEMENT_SET_NO":"999","APOAPSIS":"362.863","SITE":"AFETR","TLE_LINE2":"2 53854  53.2132 204.4008 0005491 286.0218  74.0195 15.69907600 14304","MEAN_MOTION_DOT":"-0.00491397","NORAD_CAT_ID":"53854","PERIOD":"91.725","COUNTRY_CODE":"US","RA_OF_ASC_NODE":"204.4008","MEAN_ANOMALY":"74.0195","RCS_SIZE":"LARGE","REV_AT_EPOCH":"1430","ARG_OF_PERICENTER":"286.0218","GP_ID":"220099621","EPOCH":"2022-12-11T18:42:11.283264","LAUNCH_DATE":"2022-09-19","MEAN_MOTION_DDOT":"0.0000000000000","BSTAR":"-0.00425420000000","FILE":"3691993","DECAY_DATE":null,"MEAN_ELEMENT_THEORY":"SGP4","OBJECT_TYPE":"PAYLOAD","CLASSIFICATION_TYPE":"U","SEMIMAJOR_AXIS":"6737.298"}];
